[
    {
        "Altitude(m)": 706658.6027728084,
        "Argument of Periapsis(deg)": 0.010251109067964361,
        "Eccentricity": 0.0,
        "Inclination(deg)": 45.0,
        "Latitude(deg)": 42.23662694590998,
        "Longitude(deg)": 54.747341070512675,
        "Mean Anomaly(deg)": 108.56169498273273,
        "RAAN(deg)": 39.99032325268762,
        "Satellite Name": "Constellation 1 182",
        "Satellite Number": 182,
        "Semi-Major Axis(m)": 7083131.272910544,
        "Time(s)": 171
    },
    {
        "Altitude(m)": 706654.5283506489,
        "Argument of Periapsis(deg)": 0.010311057074209765,
        "Eccentricity": 0.0,
        "Inclination(deg)": 45.0,
        "Latitude(deg)": 42.21811443498849,
        "Longitude(deg)": 54.82116751858655,
        "Mean Anomaly(deg)": 108.62239612298264,
        "RAAN(deg)": 39.99026666352204,
        "Satellite Name": "Constellation 1 182",
        "Satellite Number": 182,
        "Semi-Major Axis(m)": 7083131.272910544,
        "Time(s)": 172
    },
    {
        "Altitude(m)": 706650.4431644147,
        "Argument of Periapsis(deg)": 0.010371005080455171,
        "Eccentricity": 0.0,
        "Inclination(deg)": 45.0,
        "Latitude(deg)": 42.19954896419783,
        "Longitude(deg)": 54.89494842076799,
        "Mean Anomaly(deg)": 108.68309726323253,
        "RAAN(deg)": 39.990210074356476,
        "Satellite Name": "Constellation 1 182",
        "Satellite Number": 182,
        "Semi-Major Axis(m)": 7083131.272910544,
        "Time(s)": 173
    },
    {
        "Altitude(m)": 706646.3472384918,
        "Argument of Periapsis(deg)": 0.010430953086700577,
        "Eccentricity": 0.0,
        "Inclination(deg)": 45.0,
        "Latitude(deg)": 42.180930598291965,
        "Longitude(deg)": 54.9686837035684,
        "Mean Anomaly(deg)": 108.74379840348243,
        "RAAN(deg)": 39.99015348519091,
        "Satellite Name": "Constellation 1 182",
        "Satellite Number": 182,
        "Semi-Major Axis(m)": 7083131.272910544,
        "Time(s)": 174
    },
    {
        "Altitude(m)": 706642.2405973268,
        "Argument of Periapsis(deg)": 0.010490901092945983,
        "Eccentricity": 0.0,
        "Inclination(deg)": 45.0,
        "Latitude(deg)": 42.16225940211133,
        "Longitude(deg)": 55.042373294055146,
        "Mean Anomaly(deg)": 108.80449954373235,
        "RAAN(deg)": 39.990096896025335,
        "Satellite Name": "Constellation 1 182",
        "Satellite Number": 182,
        "Semi-Major Axis(m)": 7083131.272910544,
        "Time(s)": 175
    },
    {
        "Altitude(m)": 706638.1232654441,
        "Argument of Periapsis(deg)": 0.010550849099191389,
        "Eccentricity": 0.0,
        "Inclination(deg)": 45.0,
        "Latitude(deg)": 42.14353544058205,
        "Longitude(deg)": 55.116017119851136,
        "Mean Anomaly(deg)": 108.86520068398222,
        "RAAN(deg)": 39.99004030685977,
        "Satellite Name": "Constellation 1 182",
        "Satellite Number": 182,
        "Semi-Major Axis(m)": 7083131.272910544,
        "Time(s)": 176
    },
    {
        "Altitude(m)": 706633.995267432,
        "Argument of Periapsis(deg)": 0.010610797105436795,
        "Eccentricity": 0.0,
        "Inclination(deg)": 45.0,
        "Latitude(deg)": 42.12475877871495,
        "Longitude(deg)": 55.18961510913457,
        "Mean Anomaly(deg)": 108.92590182423213,
        "RAAN(deg)": 39.989983717694194,
        "Satellite Name": "Constellation 1 182",
        "Satellite Number": 182,
        "Semi-Major Axis(m)": 7083131.272910544,
        "Time(s)": 177
    },
    {
        "Altitude(m)": 706629.8566279432,
        "Argument of Periapsis(deg)": 0.0106707451116822,
        "Eccentricity": 0.0,
        "Inclination(deg)": 45.0,
        "Latitude(deg)": 42.105929481604676,
        "Longitude(deg)": 55.26316702254059,
        "Mean Anomaly(deg)": 108.98660296448202,
        "RAAN(deg)": 39.98992712852863,
        "Satellite Name": "Constellation 1 182",
        "Satellite Number": 182,
        "Semi-Major Axis(m)": 7083131.272910544,
        "Time(s)": 178
    },
    {
        "Altitude(m)": 706625.7073716936,
        "Argument of Periapsis(deg)": 0.010730693117927606,
        "Eccentricity": 0.0,
        "Inclination(deg)": 45.0,
        "Latitude(deg)": 42.08704761442949,
        "Longitude(deg)": 55.33667312555043,
        "Mean Anomaly(deg)": 109.04730410473192,
        "RAAN(deg)": 39.989870539363054,
        "Satellite Name": "Constellation 1 182",
        "Satellite Number": 182,
        "Semi-Major Axis(m)": 7083131.272910544,
        "Time(s)": 179
    },
    {
        "Altitude(m)": 706621.5475234728,
        "Argument of Periapsis(deg)": 0.01079064112417301,
        "Eccentricity": 0.0,
        "Inclination(deg)": 45.0,
        "Latitude(deg)": 42.06811324244919,
        "Longitude(deg)": 55.410133179906815,
        "Mean Anomaly(deg)": 109.10800524498183,
        "RAAN(deg)": 39.98981395019749,
        "Satellite Name": "Constellation 1 182",
        "Satellite Number": 182,
        "Semi-Major Axis(m)": 7083131.272910544,
        "Time(s)": 180
    },
    {
        "Altitude(m)": 706617.3771081384,
        "Argument of Periapsis(deg)": 0.010850589130418416,
        "Eccentricity": 0.0,
        "Inclination(deg)": 45.0,
        "Latitude(deg)": 42.049126431005156,
        "Longitude(deg)": 55.48354711600263,
        "Mean Anomaly(deg)": 109.1687063852317,
        "RAAN(deg)": 39.98975736103192,
        "Satellite Name": "Constellation 1 182",
        "Satellite Number": 182,
        "Semi-Major Axis(m)": 7083131.272910544,
        "Time(s)": 181
    },
    {
        "Altitude(m)": 706613.1961506078,
        "Argument of Periapsis(deg)": 0.01091053713666382,
        "Eccentricity": 0.0,
        "Inclination(deg)": 45.0,
        "Latitude(deg)": 42.030087245519276,
        "Longitude(deg)": 55.556914864783295,
        "Mean Anomaly(deg)": 109.22940752548162,
        "RAAN(deg)": 39.98970077186635,
        "Satellite Name": "Constellation 1 182",
        "Satellite Number": 182,
        "Semi-Major Axis(m)": 7083131.272910544,
        "Time(s)": 182
    },
    {
        "Altitude(m)": 706609.0046758661,
        "Argument of Periapsis(deg)": 0.010970485142909228,
        "Eccentricity": 0.0,
        "Inclination(deg)": 45.0,
        "Latitude(deg)": 42.01099575149297,
        "Longitude(deg)": 55.63023635774574,
        "Mean Anomaly(deg)": 109.29010866573152,
        "RAAN(deg)": 39.98964418270078,
        "Satellite Name": "Constellation 1 182",
        "Satellite Number": 182,
        "Semi-Major Axis(m)": 7083131.272910544,
        "Time(s)": 183
    },
    {
        "Altitude(m)": 706604.8027089692,
        "Argument of Periapsis(deg)": 0.011030433149154634,
        "Eccentricity": 0.0,
        "Inclination(deg)": 45.0,
        "Latitude(deg)": 41.99185201450649,
        "Longitude(deg)": 55.703511526937866,
        "Mean Anomaly(deg)": 109.35080980598141,
        "RAAN(deg)": 39.98958759353521,
        "Satellite Name": "Constellation 1 182",
        "Satellite Number": 182,
        "Semi-Major Axis(m)": 7083131.272910544,
        "Time(s)": 184
    },
    {
        "Altitude(m)": 706600.590275036,
        "Argument of Periapsis(deg)": 0.01109038115540004,
        "Eccentricity": 0.0,
        "Inclination(deg)": 45.0,
        "Latitude(deg)": 41.97265610021774,
        "Longitude(deg)": 55.776740136861164,
        "Mean Anomaly(deg)": 109.41151094623133,
        "RAAN(deg)": 39.98953100436964,
        "Satellite Name": "Constellation 1 182",
        "Satellite Number": 182,
        "Semi-Major Axis(m)": 7083131.272910544,
        "Time(s)": 185
    },
    {
        "Altitude(m)": 706596.3673992535,
        "Argument of Periapsis(deg)": 0.011150329161645444,
        "Eccentricity": 0.0,
        "Inclination(deg)": 45.0,
        "Latitude(deg)": 41.95340807436238,
        "Longitude(deg)": 55.84992245685861,
        "Mean Anomaly(deg)": 109.47221208648122,
        "RAAN(deg)": 39.98947441520407,
        "Satellite Name": "Constellation 1 182",
        "Satellite Number": 182,
        "Semi-Major Axis(m)": 7083131.272910544,
        "Time(s)": 186
    },
    {
        "Altitude(m)": 706592.1341068671,
        "Argument of Periapsis(deg)": 0.01121027716789085,
        "Eccentricity": 0.0,
        "Inclination(deg)": 45.0,
        "Latitude(deg)": 41.93410800275154,
        "Longitude(deg)": 55.92305825253072,
        "Mean Anomaly(deg)": 109.53291322673111,
        "RAAN(deg)": 39.9894178260385,
        "Satellite Name": "Constellation 1 182",
        "Satellite Number": 182,
        "Semi-Major Axis(m)": 7083131.272910544,
        "Time(s)": 187
    },
    {
        "Altitude(m)": 706587.8904232007,
        "Argument of Periapsis(deg)": 0.011270225174136258,
        "Eccentricity": 0.0,
        "Inclination(deg)": 45.0,
        "Latitude(deg)": 41.914755951272014,
        "Longitude(deg)": 55.99614745812398,
        "Mean Anomaly(deg)": 109.59361436698101,
        "RAAN(deg)": 39.98936123687294,
        "Satellite Name": "Constellation 1 182",
        "Satellite Number": 182,
        "Semi-Major Axis(m)": 7083131.272910544,
        "Time(s)": 188
    },
    {
        "Altitude(m)": 706583.6363736346,
        "Argument of Periapsis(deg)": 0.011330173180381662,
        "Eccentricity": 0.0,
        "Inclination(deg)": 45.0,
        "Latitude(deg)": 41.895351985885114,
        "Longitude(deg)": 56.06919000843248,
        "Mean Anomaly(deg)": 109.6543155072309,
        "RAAN(deg)": 39.989304647707364,
        "Satellite Name": "Constellation 1 182",
        "Satellite Number": 182,
        "Semi-Major Axis(m)": 7083131.272910544,
        "Time(s)": 189
    }
]